[
    {
        "Altitude(m)": 624792.7647972148,
        "Argument of Periapsis(deg)": 0.0,
        "Eccentricity": 0.0,
        "Inclination(deg)": 60.0,
        "Latitude(deg)": -59.14706551685934,
        "Longitude(deg)": 19.026569950385454,
        "Mean Anomaly(deg)": -98.18180000000004,
        "RAAN(deg)": 225.0,
        "Satellite Name": "Test1 1006",
        "Satellite Number": 1006,
        "Semi-Major Axis(m)": 6980739.136638005,
        "Time(s)": 0
    },
    {
        "Altitude(m)": 624842.1562023074,
        "Argument of Periapsis(deg)": 0.00010418945913296404,
        "Eccentricity": 0.0,
        "Inclination(deg)": 60.0,
        "Latitude(deg)": -59.28914713643091,
        "Longitude(deg)": 20.156074201019376,
        "Mean Anomaly(deg)": -97.56169385453819,
        "RAAN(deg)": 224.99957995086024,
        "Satellite Name": "Test1 1006",
        "Satellite Number": 1006,
        "Semi-Major Axis(m)": 6980739.136638005,
        "Time(s)": 10
    },
    {
        "Altitude(m)": 624887.723348837,
        "Argument of Periapsis(deg)": 0.0002083789182659281,
        "Eccentricity": 0.0,
        "Inclination(deg)": 60.0,
        "Latitude(deg)": -59.4206178982126,
        "Longitude(deg)": 21.29499886308597,
        "Mean Anomaly(deg)": -96.94158770907636,
        "RAAN(deg)": 224.9991599017205,
        "Satellite Name": "Test1 1006",
        "Satellite Number": 1006,
        "Semi-Major Axis(m)": 6980739.136638005,
        "Time(s)": 20
    },
    {
        "Altitude(m)": 624929.448273761,
        "Argument of Periapsis(deg)": 0.00031256837739889213,
        "Eccentricity": 0.0,
        "Inclination(deg)": 60.0,
        "Latitude(deg)": -59.54134050295161,
        "Longitude(deg)": 22.442721626973505,
        "Mean Anomaly(deg)": -96.32148156361451,
        "RAAN(deg)": 224.99873985258074,
        "Satellite Name": "Test1 1006",
        "Satellite Number": 1006,
        "Semi-Major Axis(m)": 6980739.136638005,
        "Time(s)": 30
    },
    {
        "Altitude(m)": 624967.3145251989,
        "Argument of Periapsis(deg)": 0.0004167578365318562,
        "Eccentricity": 0.0,
        "Inclination(deg)": 60.0,
        "Latitude(deg)": -59.651186784892275,
        "Longitude(deg)": 23.59858519879563,
        "Mean Anomaly(deg)": -95.70137541815268,
        "RAAN(deg)": 224.99831980344103,
        "Satellite Name": "Test1 1006",
        "Satellite Number": 1006,
        "Semi-Major Axis(m)": 6980739.136638005,
        "Time(s)": 40
    },
    {
        "Altitude(m)": 625001.3071693741,
        "Argument of Periapsis(deg)": 0.0005209472956648203,
        "Eccentricity": 0.0,
        "Inclination(deg)": 60.0,
        "Latitude(deg)": -59.75003835085881,
        "Longitude(deg)": 24.761898137157267,
        "Mean Anomaly(deg)": -95.08126927269083,
        "RAAN(deg)": 224.99789975430127,
        "Satellite Name": "Test1 1006",
        "Satellite Number": 1006,
        "Semi-Major Axis(m)": 6980739.136638005,
        "Time(s)": 50
    },
    {
        "Altitude(m)": 625031.4127969074,
        "Argument of Periapsis(deg)": 0.0006251367547977843,
        "Eccentricity": 0.0,
        "Inclination(deg)": 60.0,
        "Latitude(deg)": -59.837787186260556,
        "Longitude(deg)": 25.931937527487488,
        "Mean Anomaly(deg)": -94.461163127229,
        "RAAN(deg)": 224.99747970516154,
        "Satellite Name": "Test1 1006",
        "Satellite Number": 1006,
        "Semi-Major Axis(m)": 6980739.136638005,
        "Time(s)": 60
    },
    {
        "Altitude(m)": 625057.6195284649,
        "Argument of Periapsis(deg)": 0.0007293262139307483,
        "Eccentricity": 0.0,
        "Inclination(deg)": 60.0,
        "Latitude(deg)": -59.9143362211865,
        "Longitude(deg)": 27.107951970827948,
        "Mean Anomaly(deg)": -93.84105698176715,
        "RAAN(deg)": 224.99705965602178,
        "Satellite Name": "Test1 1006",
        "Satellite Number": 1006,
        "Semi-Major Axis(m)": 6980739.136638005,
        "Time(s)": 70
    },
    {
        "Altitude(m)": 625079.9170197543,
        "Argument of Periapsis(deg)": 0.0008335156730637124,
        "Eccentricity": 0.0,
        "Inclination(deg)": 60.0,
        "Latitude(deg)": -59.97959984996245,
        "Longitude(deg)": 28.28916335830269,
        "Mean Anomaly(deg)": -93.22095083630532,
        "RAAN(deg)": 224.99663960688207,
        "Satellite Name": "Test1 1006",
        "Satellite Number": 1006,
        "Semi-Major Axis(m)": 6980739.136638005,
        "Time(s)": 80
    },
    {
        "Altitude(m)": 625098.2964658921,
        "Argument of Periapsis(deg)": 0.0009377051321966765,
        "Eccentricity": 0.0,
        "Inclination(deg)": 60.0,
        "Latitude(deg)": -60.033504397887995,
        "Longitude(deg)": 29.474770435611493,
        "Mean Anomaly(deg)": -92.60084469084347,
        "RAAN(deg)": 224.9962195577423,
        "Satellite Name": "Test1 1006",
        "Satellite Number": 1006,
        "Semi-Major Axis(m)": 6980739.136638005,
        "Time(s)": 90
    },
    {
        "Altitude(m)": 625112.7506051016,
        "Argument of Periapsis(deg)": 0.0010418945913296407,
        "Eccentricity": 0.0,
        "Inclination(deg)": 60.0,
        "Latitude(deg)": -60.07598852936455,
        "Longitude(deg)": 30.663952617977426,
        "Mean Anomaly(deg)": -91.98073854538163,
        "RAAN(deg)": 224.99579950860257,
        "Satellite Name": "Test1 1006",
        "Satellite Number": 1006,
        "Semi-Major Axis(m)": 6980739.136638005,
        "Time(s)": 100
    },
    {
        "Altitude(m)": 625123.2737217736,
        "Argument of Periapsis(deg)": 0.0011460840504626045,
        "Eccentricity": 0.0,
        "Inclination(deg)": 60.0,
        "Latitude(deg)": -60.10700359223457,
        "Longitude(deg)": 31.855872511040197,
        "Mean Anomaly(deg)": -91.3606323999199,
        "RAAN(deg)": 224.9953794594628,
        "Satellite Name": "Test1 1006",
        "Satellite Number": 1006,
        "Semi-Major Axis(m)": 6980739.136638005,
        "Time(s)": 110
    },
    {
        "Altitude(m)": 625129.8616488741,
        "Argument of Periapsis(deg)": 0.0012502735095955685,
        "Eccentricity": 0.0,
        "Inclination(deg)": 60.0,
        "Latitude(deg)": -60.1265138938709,
        "Longitude(deg)": 33.04968012737098,
        "Mean Anomaly(deg)": -90.74052625445796,
        "RAAN(deg)": 224.9949594103231,
        "Satellite Name": "Test1 1006",
        "Satellite Number": 1006,
        "Semi-Major Axis(m)": 6980739.136638005,
        "Time(s)": 120
    },
    {
        "Altitude(m)": 625132.5117697063,
        "Argument of Periapsis(deg)": 0.0013544629687285324,
        "Eccentricity": 0.0,
        "Inclination(deg)": 60.0,
        "Latitude(deg)": -60.134496905392034,
        "Longitude(deg)": 34.24451724588746,
        "Mean Anomaly(deg)": -90.12042010899621,
        "RAAN(deg)": 224.99453936118334,
        "Satellite Name": "Test1 1006",
        "Satellite Number": 1006,
        "Semi-Major Axis(m)": 6980739.136638005,
        "Time(s)": 130
    },
    {
        "Altitude(m)": 625131.2230190077,
        "Argument of Periapsis(deg)": 0.0014586524278614966,
        "Eccentricity": 0.0,
        "Inclination(deg)": 60.0,
        "Latitude(deg)": -60.13094339129048,
        "Longitude(deg)": 35.439520358455304,
        "Mean Anomaly(deg)": -89.50031396353438,
        "RAAN(deg)": 224.9941193120436,
        "Satellite Name": "Test1 1006",
        "Satellite Number": 1006,
        "Semi-Major Axis(m)": 6980739.136638005,
        "Time(s)": 140
    },
    {
        "Altitude(m)": 625125.9958833959,
        "Argument of Periapsis(deg)": 0.0015628418869944607,
        "Eccentricity": 0.0,
        "Inclination(deg)": 60.0,
        "Latitude(deg)": -60.11585746273384,
        "Longitude(deg)": 36.63382518443102,
        "Mean Anomaly(deg)": -88.88020781807253,
        "RAAN(deg)": 224.99369926290385,
        "Satellite Name": "Test1 1006",
        "Satellite Number": 1006,
        "Semi-Major Axis(m)": 6980739.136638005,
        "Time(s)": 150
    },
    {
        "Altitude(m)": 625116.8324011827,
        "Argument of Periapsis(deg)": 0.0016670313461274247,
        "Eccentricity": 0.0,
        "Inclination(deg)": 60.0,
        "Latitude(deg)": -60.089256553823084,
        "Longitude(deg)": 37.826571194123126,
        "Mean Anomaly(deg)": -88.2601016726107,
        "RAAN(deg)": 224.99327921376414,
        "Satellite Name": "Test1 1006",
        "Satellite Number": 1006,
        "Semi-Major Axis(m)": 6980739.136638005,
        "Time(s)": 160
    },
    {
        "Altitude(m)": 625103.7361614996,
        "Argument of Periapsis(deg)": 0.0017712208052603888,
        "Eccentricity": 0.0,
        "Inclination(deg)": 60.0,
        "Latitude(deg)": -60.05117132113065,
        "Longitude(deg)": 39.01690458194791,
        "Mean Anomaly(deg)": -87.63999552714894,
        "RAAN(deg)": 224.9928591646244,
        "Satellite Name": "Test1 1006",
        "Satellite Number": 1006,
        "Semi-Major Axis(m)": 6980739.136638005,
        "Time(s)": 170
    },
    {
        "Altitude(m)": 625086.7123028113,
        "Argument of Periapsis(deg)": 0.001875410264393353,
        "Eccentricity": 0.0,
        "Inclination(deg)": 60.0,
        "Latitude(deg)": -60.00164546786206,
        "Longitude(deg)": 40.20398266947646,
        "Mean Anomaly(deg)": -87.01988938168702,
        "RAAN(deg)": 224.99243911548464,
        "Satellite Name": "Test1 1006",
        "Satellite Number": 1006,
        "Semi-Major Axis(m)": 6980739.136638005,
        "Time(s)": 180
    },
    {
        "Altitude(m)": 625065.7675107393,
        "Argument of Periapsis(deg)": 0.0019795997235263173,
        "Eccentricity": 0.0,
        "Inclination(deg)": 60.0,
        "Latitude(deg)": -59.94073549498826,
        "Longitude(deg)": 41.386978181722725,
        "Mean Anomaly(deg)": -86.39978323622526,
        "RAAN(deg)": 224.99201906634488,
        "Satellite Name": "Test1 1006",
        "Satellite Number": 1006,
        "Semi-Major Axis(m)": 6980739.136638005,
        "Time(s)": 190
    }
]